start=new Date('2023-05-12T00:00:00.000Z').valueOf();
sats=[{"REF_FRAME":"TEME","APOAPSIS":"540.655","MEAN_MOTION":"15.08843296","TLE_LINE2":"2 52869  53.2161 330.8266 0001330  98.7626 261.3517 15.08843296 50133","EPOCH":"2023-05-11T19:49:56.674560","BSTAR":"0.00022216000000","MEAN_MOTION_DOT":"0.00003250","ELEMENT_SET_NO":"999","NORAD_CAT_ID":"52869","PERIAPSIS":"538.815","SITE":"AFETR","MEAN_MOTION_DDOT":"0.0000000000000","CLASSIFICATION_TYPE":"U","MEAN_ELEMENT_THEORY":"SGP4","LAUNCH_DATE":"2022-06-17","PERIOD":"95.437","CENTER_NAME":"EARTH","TIME_SYSTEM":"UTC","OBJECT_NAME":"STARLINK-4266","ARG_OF_PERICENTER":"98.7626","TLE_LINE1":"1 52869U 22062AR  23131.82635040  .00003250  00000-0  22216-3 0  9996","REV_AT_EPOCH":"5013","ECCENTRICITY":"0.00013300","OBJECT_ID":"2022-062AR","DECAY_DATE":null,"MEAN_ANOMALY":"261.3517","RCS_SIZE":"LARGE","GP_ID":"231636929","FILE":"3905576","COUNTRY_CODE":"US","INCLINATION":"53.2161","RA_OF_ASC_NODE":"330.8266","SEMIMAJOR_AXIS":"6917.870","EPHEMERIS_TYPE":"0","OBJECT_TYPE":"PAYLOAD"},{"REV_AT_EPOCH":"5000","OBJECT_ID":"2022-062AS","ECCENTRICITY":"0.00008300","RCS_SIZE":"LARGE","DECAY_DATE":null,"MEAN_ANOMALY":"255.8264","FILE":"3905576","GP_ID":"231637178","INCLINATION":"53.2168","COUNTRY_CODE":"US","OBJECT_TYPE":"PAYLOAD","SEMIMAJOR_AXIS":"6917.884","RA_OF_ASC_NODE":"340.7761","EPHEMERIS_TYPE":"0","CENTER_NAME":"EARTH","TIME_SYSTEM":"UTC","OBJECT_NAME":"STARLINK-4195","ARG_OF_PERICENTER":"104.2820","TLE_LINE1":"1 52870U 22062AS  23131.83647112 -.00000545  00000-0 -16198-4 0  9991","ELEMENT_SET_NO":"999","NORAD_CAT_ID":"52870","MEAN_MOTION_DDOT":"0.0000000000000","PERIAPSIS":"539.175","SITE":"AFETR","CLASSIFICATION_TYPE":"U","MEAN_ELEMENT_THEORY":"SGP4","LAUNCH_DATE":"2022-06-17","PERIOD":"95.438","REF_FRAME":"TEME","APOAPSIS":"540.324","TLE_LINE2":"2 52870  53.2168 340.7761 0000830 104.2820 255.8264 15.08838678 50006","MEAN_MOTION":"15.08838678","EPOCH":"2023-05-11T20:04:31.104768","MEAN_MOTION_DOT":"-0.00000545","BSTAR":"-0.00001619800000"},{"REF_FRAME":"TEME","APOAPSIS":"540.555","TLE_LINE2":"2 52871  53.2157 330.8765 0001181  87.7271 272.3856 15.08842493 50139","MEAN_MOTION":"15.08842493","EPOCH":"2023-05-11T19:34:03.025056","MEAN_MOTION_DOT":"0.00014218","BSTAR":"0.00090953000000","ELEMENT_SET_NO":"999","NORAD_CAT_ID":"52871","CLASSIFICATION_TYPE":"U","MEAN_MOTION_DDOT":"0.0000000000000","SITE":"AFETR","PERIAPSIS":"538.921","PERIOD":"95.437","LAUNCH_DATE":"2022-06-17","MEAN_ELEMENT_THEORY":"SGP4","CENTER_NAME":"EARTH","TIME_SYSTEM":"UTC","ARG_OF_PERICENTER":"87.7271","OBJECT_NAME":"STARLINK-4207","TLE_LINE1":"1 52871U 22062AT  23131.81531279  .00014218  00000-0  90953-3 0  9996","OBJECT_ID":"2022-062AT","ECCENTRICITY":"0.00011810","REV_AT_EPOCH":"5013","FILE":"3905576","GP_ID":"231637930","RCS_SIZE":"LARGE","DECAY_DATE":null,"MEAN_ANOMALY":"272.3856","OBJECT_TYPE":"PAYLOAD","SEMIMAJOR_AXIS":"6917.873","EPHEMERIS_TYPE":"0","RA_OF_ASC_NODE":"330.8765","INCLINATION":"53.2157","COUNTRY_CODE":"US"},{"MEAN_MOTION":"15.08840918","TLE_LINE2":"2 52872  53.2161 330.8270 0001075  95.7774 264.3340 15.08840918 50134","APOAPSIS":"540.486","REF_FRAME":"TEME","BSTAR":"0.00067324000000","MEAN_MOTION_DOT":"0.00010443","EPOCH":"2023-05-11T19:40:43.234176","NORAD_CAT_ID":"52872","ELEMENT_SET_NO":"999","LAUNCH_DATE":"2022-06-17","PERIOD":"95.437","MEAN_ELEMENT_THEORY":"SGP4","CLASSIFICATION_TYPE":"U","PERIAPSIS":"538.999","SITE":"AFETR","MEAN_MOTION_DDOT":"0.0000000000000","TIME_SYSTEM":"UTC","CENTER_NAME":"EARTH","TLE_LINE1":"1 52872U 22062AU  23131.81994484  .00010443  00000-0  67324-3 0  9990","ARG_OF_PERICENTER":"95.7774","OBJECT_NAME":"STARLINK-4213","OBJECT_ID":"2022-062AU","ECCENTRICITY":"0.00010750","REV_AT_EPOCH":"5013","RA_OF_ASC_NODE":"330.8270","EPHEMERIS_TYPE":"0","SEMIMAJOR_AXIS":"6917.878","OBJECT_TYPE":"PAYLOAD","COUNTRY_CODE":"US","INCLINATION":"53.2161","GP_ID":"231638680","FILE":"3905576","MEAN_ANOMALY":"264.3340","DECAY_DATE":null,"RCS_SIZE":"LARGE"},{"TIME_SYSTEM":"UTC","CENTER_NAME":"EARTH","TLE_LINE1":"1 52873U 22062AV  23131.80795497  .00000937  00000-0  76924-4 0  9997","OBJECT_NAME":"STARLINK-4211","ARG_OF_PERICENTER":"68.1331","REV_AT_EPOCH":"5013","ECCENTRICITY":"0.00012140","OBJECT_ID":"2022-062AV","COUNTRY_CODE":"US","INCLINATION":"53.2165","EPHEMERIS_TYPE":"0","RA_OF_ASC_NODE":"330.9067","SEMIMAJOR_AXIS":"6917.887","OBJECT_TYPE":"PAYLOAD","DECAY_DATE":null,"MEAN_ANOMALY":"291.9791","RCS_SIZE":"LARGE","GP_ID":"231637428","FILE":"3905576","TLE_LINE2":"2 52873  53.2165 330.9067 0001214  68.1331 291.9791 15.08837809 50133","MEAN_MOTION":"15.08837809","REF_FRAME":"TEME","APOAPSIS":"540.592","BSTAR":"0.00007692400000","MEAN_MOTION_DOT":"0.00000937","EPOCH":"2023-05-11T19:23:27.309408","NORAD_CAT_ID":"52873","ELEMENT_SET_NO":"999","MEAN_ELEMENT_THEORY":"SGP4","PERIOD":"95.438","LAUNCH_DATE":"2022-06-17","PERIAPSIS":"538.912","SITE":"AFETR","MEAN_MOTION_DDOT":"0.0000000000000","CLASSIFICATION_TYPE":"U"},{"EPOCH":"2023-05-11T19:39:20.740320","MEAN_MOTION_DOT":"-0.00000336","BSTAR":"-0.00000301420000","REF_FRAME":"TEME","APOAPSIS":"540.425","TLE_LINE2":"2 52874  53.2173 330.8581 0000985  90.6572 269.4533 15.08840620 50133","MEAN_MOTION":"15.08840620","CLASSIFICATION_TYPE":"U","MEAN_MOTION_DDOT":"0.0000000000000","PERIAPSIS":"539.062","SITE":"AFETR","LAUNCH_DATE":"2022-06-17","PERIOD":"95.438","MEAN_ELEMENT_THEORY":"SGP4","ELEMENT_SET_NO":"999","NORAD_CAT_ID":"52874","ARG_OF_PERICENTER":"90.6572","OBJECT_NAME":"STARLINK-4210","TLE_LINE1":"1 52874U 22062AW  23131.81899005 -.00000336  00000-0 -30142-5 0  9997","CENTER_NAME":"EARTH","TIME_SYSTEM":"UTC","FILE":"3905576","GP_ID":"231637678","RCS_SIZE":"LARGE","DECAY_DATE":null,"MEAN_ANOMALY":"269.4533","OBJECT_TYPE":"PAYLOAD","RA_OF_ASC_NODE":"330.8581","EPHEMERIS_TYPE":"0","SEMIMAJOR_AXIS":"6917.878","INCLINATION":"53.2173","COUNTRY_CODE":"US","ECCENTRICITY":"0.00009850","OBJECT_ID":"2022-062AW","REV_AT_EPOCH":"5013"},{"SEMIMAJOR_AXIS":"6917.881","EPHEMERIS_TYPE":"0","RA_OF_ASC_NODE":"331.5202","OBJECT_TYPE":"PAYLOAD","COUNTRY_CODE":"US","INCLINATION":"53.2165","GP_ID":"231638430","FILE":"3905576","MEAN_ANOMALY":"279.6956","DECAY_DATE":null,"RCS_SIZE":"LARGE","OBJECT_ID":"2022-062AX","ECCENTRICITY":"0.00012540","REV_AT_EPOCH":"5011","TLE_LINE1":"1 52875U 22062AX  23131.67179314  .00001920  00000-0  13871-3 0  9992","ARG_OF_PERICENTER":"80.4178","OBJECT_NAME":"STARLINK-4193","TIME_SYSTEM":"UTC","CENTER_NAME":"EARTH","PERIOD":"95.438","LAUNCH_DATE":"2022-06-17","MEAN_ELEMENT_THEORY":"SGP4","CLASSIFICATION_TYPE":"U","PERIAPSIS":"538.878","SITE":"AFETR","MEAN_MOTION_DDOT":"0.0000000000000","NORAD_CAT_ID":"52875","ELEMENT_SET_NO":"999","BSTAR":"0.00013871000000","MEAN_MOTION_DOT":"0.00001920","EPOCH":"2023-05-11T16:07:22.927296","MEAN_MOTION":"15.08839856","TLE_LINE2":"2 52875  53.2165 331.5202 0001254  80.4178 279.6956 15.08839856 50111","APOAPSIS":"540.613","REF_FRAME":"TEME"},{"RA_OF_ASC_NODE":"330.8936","EPHEMERIS_TYPE":"0","SEMIMAJOR_AXIS":"6917.789","OBJECT_TYPE":"PAYLOAD","COUNTRY_CODE":"US","INCLINATION":"53.2151","GP_ID":"231638181","FILE":"3905576","DECAY_DATE":null,"MEAN_ANOMALY":"282.8219","RCS_SIZE":"LARGE","OBJECT_ID":"2022-062AY","ECCENTRICITY":"0.00011840","REV_AT_EPOCH":"5013","TLE_LINE1":"1 52876U 22062AY  23131.81163175  .00011997  00000-0  76992-3 0  9995","ARG_OF_PERICENTER":"77.2906","OBJECT_NAME":"STARLINK-4200","TIME_SYSTEM":"UTC","CENTER_NAME":"EARTH","LAUNCH_DATE":"2022-06-17","PERIOD":"95.436","MEAN_ELEMENT_THEORY":"SGP4","CLASSIFICATION_TYPE":"U","PERIAPSIS":"538.835","SITE":"AFETR","MEAN_MOTION_DDOT":"0.0000000000000","NORAD_CAT_ID":"52876","ELEMENT_SET_NO":"999","BSTAR":"0.00076992000000","MEAN_MOTION_DOT":"0.00011997","EPOCH":"2023-05-11T19:28:44.983200","MEAN_MOTION":"15.08869818","TLE_LINE2":"2 52876  53.2151 330.8936 0001184  77.2906 282.8219 15.08869818 50139","APOAPSIS":"540.473","REF_FRAME":"TEME"},{"OBJECT_TYPE":"PAYLOAD","EPHEMERIS_TYPE":"0","RA_OF_ASC_NODE":"330.7452","SEMIMAJOR_AXIS":"6917.876","INCLINATION":"53.2156","COUNTRY_CODE":"US","FILE":"3905576","GP_ID":"231636930","RCS_SIZE":"LARGE","MEAN_ANOMALY":"280.8541","DECAY_DATE":null,"OBJECT_ID":"2022-062AZ","ECCENTRICITY":"0.00011040","REV_AT_EPOCH":"5014","TLE_LINE1":"1 52877U 22062AZ  23131.84474998  .00001125  00000-0  88747-4 0  9991","ARG_OF_PERICENTER":"79.2575","OBJECT_NAME":"STARLINK-4214","TIME_SYSTEM":"UTC","CENTER_NAME":"EARTH","LAUNCH_DATE":"2022-06-17","PERIOD":"95.437","MEAN_ELEMENT_THEORY":"SGP4","CLASSIFICATION_TYPE":"U","MEAN_MOTION_DDOT":"0.0000000000000","SITE":"AFETR","PERIAPSIS":"538.977","NORAD_CAT_ID":"52877","ELEMENT_SET_NO":"999","MEAN_MOTION_DOT":"0.00001125","BSTAR":"0.00008874700000","EPOCH":"2023-05-11T20:16:26.398272","TLE_LINE2":"2 52877  53.2156 330.7452 0001104  79.2575 280.8541 15.08841428 50147","MEAN_MOTION":"15.08841428","REF_FRAME":"TEME","APOAPSIS":"540.505"},{"REF_FRAME":"TEME","APOAPSIS":"540.503","TLE_LINE2":"2 52878  53.2176 331.2410 0001094 103.3139 256.7976 15.08839726 50617","MEAN_MOTION":"15.08839726","EPOCH":"2023-05-11T17:37:27.772608","MEAN_MOTION_DOT":"0.00001755","BSTAR":"0.00012829000000","ELEMENT_SET_NO":"999","NORAD_CAT_ID":"52878","MEAN_MOTION_DDOT":"0.0000000000000","SITE":"AFETR","PERIAPSIS":"538.989","CLASSIFICATION_TYPE":"U","MEAN_ELEMENT_THEORY":"SGP4","PERIOD":"95.438","LAUNCH_DATE":"2022-06-17","CENTER_NAME":"EARTH","TIME_SYSTEM":"UTC","OBJECT_NAME":"STARLINK-4171","ARG_OF_PERICENTER":"103.3139","TLE_LINE1":"1 52878U 22062BA  23131.73434922  .00001755  00000-0  12829-3 0  9999","REV_AT_EPOCH":"5061","ECCENTRICITY":"0.00010940","OBJECT_ID":"2022-062BA","RCS_SIZE":"LARGE","DECAY_DATE":null,"MEAN_ANOMALY":"256.7976","FILE":"3905487","GP_ID":"231612834","INCLINATION":"53.2176","COUNTRY_CODE":"US","OBJECT_TYPE":"PAYLOAD","EPHEMERIS_TYPE":"0","RA_OF_ASC_NODE":"331.2410","SEMIMAJOR_AXIS":"6917.881"}];
